BEIDOU-2 IGSO-1 (C06)   
1 36828U 10036A   24203.83718819 -.00000114  00000+0  00000+0 0  9998
2 36828  54.2584 169.2514 0041842 206.9138 333.3290  1.00272052 51236
BEIDOU-2 G4 (C04)       
1 37210U 10057A   24203.82110142 -.00000109  00000+0  00000+0 0  9995
2 37210   1.9254  69.2331 0004373 149.1486 177.2266  1.00273314 50311
BEIDOU-2 IGSO-2 (C07)   
1 37256U 10068A   24203.86462037 -.00000170  00000+0  00000+0 0  9992
2 37256  48.8131 280.3997 0039895 215.2132 222.0796  1.00292418 49826
BEIDOU-2 IGSO-3 (C08)   
1 37384U 11013A   24203.57971527 -.00000146  00000+0  00000+0 0  9995
2 37384  61.3998  46.7786 0027847 173.2159  32.5079  1.00250146 48688
BEIDOU-2 IGSO-4 (C09)   
1 37763U 11038A   24203.87933187  .00000008  00000+0  00000+0 0  9992
2 37763  54.5638 171.8665 0126394 229.0077 308.0275  1.00252447 47679
BEIDOU-2 IGSO-5 (C10)   
1 37948U 11073A   24203.67499998 -.00000124  00000+0  00000+0 0  9991
2 37948  48.9468 280.0927 0102260 220.6987 137.4428  1.00285938 46156
BEIDOU-2 G5 (C05)       
1 38091U 12008A   24204.15872953  .00000060  00000+0  00000+0 0  9998
2 38091   2.1581  71.1200 0003484 255.1664  89.9123  1.00269423 45502
BEIDOU-2 M3 (C11)       
1 38250U 12018A   24203.83489634 -.00000071  00000+0  00000+0 0  9993
2 38250  56.3147 328.1905 0022024 260.5892  99.1699  1.86231147 83340
BEIDOU-2 M4 (C12)       
1 38251U 12018B   24203.76495543 -.00000071  00000+0  00000+0 0  9992
2 38251  56.2213 327.4618 0012905 260.4003  99.4626  1.86231855 82996
BEIDOU-2 M6 (C14)       
1 38775U 12050B   24204.01153201 -.00000010  00000+0  00000+0 0  9993
2 38775  55.9389  85.9988 0012864 344.7333  15.3022  1.86231098 80713
BEIDOU-2 G6 (C02)       
1 38953U 12059A   24203.87759142 -.00000173  00000+0  00000+0 0  9999
2 38953   2.6450  80.2716 0008818 320.2161 299.5133  1.00274514 42935
BEIDOU-3S IGSO-1S (C31) 
1 40549U 15019A   24203.76700869 -.00000161  00000+0  00000+0 0  9999
2 40549  50.5084 303.7868 0036024 194.4840 170.7191  1.00297666 34107
BEIDOU-3S M2S (C58)     
1 40748U 15037A   24203.42791214 -.00000071  00000+0  00000+0 0  9997
2 40748  55.4525 325.8724 0009847 244.8405 115.0672  1.86233171 61165
BEIDOU-3S M1S (C57)     
1 40749U 15037B   24203.16219434 -.00000071  00000+0  00000+0 0  9998
2 40749  55.4555 325.8677 0002483 344.0529  15.9483  1.86227478 61166
BEIDOU-3S IGSO-2S (C56) 
1 40938U 15053A   24204.00036021 -.00000076  00000+0  00000+0 0  9994
2 40938  50.3018 267.0002 0053508 191.6958 295.1490  1.00254678 32378
BEIDOU-2 IGSO-6 (C13)   
1 41434U 16021A   24203.58199024 -.00000129  00000+0  00000+0 0  9996
2 41434  59.2265  44.9987 0048237 221.2378 337.8772  1.00264411 30501
BEIDOU-2 G7 (C03)       
1 41586U 16037A   24203.89711309 -.00000351  00000+0  00000+0 0  9998
2 41586   1.9876  70.0245 0008502   6.9248 296.6946  1.00269980 29816
BEIDOU-3 M1 (C19)       
1 43001U 17069A   24201.09273088 -.00000028  00000+0  00000+0 0  9996
2 43001  56.0864  86.1977 0009386 310.7332  49.2447  1.86231489 45609
BEIDOU-3 M2 (C20)       
1 43002U 17069B   24203.17789465 -.00000013  00000+0  00000+0 0  9993
2 43002  56.0877  86.1636 0007806 339.3391  20.7000  1.86230964 45632
BEIDOU-3 M7 (C27)       
1 43107U 18003A   24202.92660191 -.00000073  00000+0  00000+0 0  9990
2 43107  54.9109 326.4655 0004076  84.2369 275.8177  1.86232434 44384
BEIDOU-3 M8 (C28)       
1 43108U 18003B   24203.40427086 -.00000072  00000+0  00000+0 0  9998
2 43108  54.9036 326.4344 0003287 246.7712 113.2036  1.86230907 44404
BEIDOU-3 M4 (C22)       
1 43207U 18018A   24201.16082323 -.00000027  00000+0  00000+0 0  9996
2 43207  56.0453  86.2834 0006215   9.2144 350.8565  1.86231396 43745
BEIDOU-3 M3 (C21)       
1 43208U 18018B   24203.37526349 -.00000012  00000+0  00000+0 0  9997
2 43208  56.0465  86.2137 0007383 326.7184  33.3067  1.86231182 43780
BEIDOU-3 M9 (C29)       
1 43245U 18029A   24201.98524635 -.00000073  00000+0  00000+0 0  9998
2 43245  54.7942 324.2032 0001010 192.2249 167.7810  1.86232585 42914
BEIDOU-3 M10 (C30)      
1 43246U 18029B   24202.98877627 -.00000071  00000+0  00000+0 0  9990
2 43246  54.7904 324.1958 0002900  17.0970 342.9234  1.86232913 42915
BEIDOU-2 IGSO-7 (C16)   
1 43539U 18057A   24203.83718831 -.00000114  00000+0  00000+0 0  9990
2 43539  55.1524 169.0871 0079195 234.4677 306.8146  1.00300882 22165
BEIDOU-3 M5 (C23)       
1 43581U 18062A   24203.21224410  .00000090  00000+0  00000+0 0  9992
2 43581  54.1314 205.9748 0005612 278.0544  81.9045  1.86228657 40679
BEIDOU-3 M6 (C24)       
1 43582U 18062B   24203.61489978  .00000087  00000+0  00000+0 0  9995
2 43582  54.1311 205.9504 0004508 354.6204   5.3942  1.86229558 40682
BEIDOU-3 M12 (C26)      
1 43602U 18067A   24203.54788259  .00000087  00000+0  00000+0 0  9999
2 43602  54.2217 204.6373 0006785  17.0964 342.9435  1.86231547 40164
BEIDOU-3 M11 (C25)      
1 43603U 18067B   24203.68184323  .00000086  00000+0  00000+0 0  9996
2 43603  54.2189 204.5977 0003861 358.6616   1.3533  1.86231458 40191
BEIDOU-3 M13 (C32)      
1 43622U 18072A   24203.10634007 -.00000013  00000+0  00000+0 0  9990
2 43622  56.0181  85.7481 0005894 313.0563  46.9651  1.86231528 39694
BEIDOU-3 M14 (C33)      
1 43623U 18072B   24204.04570358 -.00000010  00000+0  00000+0 0  9990
2 43623  56.0209  85.7099 0004614 349.5044  10.5606  1.86231612 39701
BEIDOU-3 M16 (C35)      
1 43647U 18078A   24203.13423641 -.00000071  00000+0  00000+0 0  9990
2 43647  54.6893 324.2587 0006358  22.6152 337.4238  1.86232148 39199
BEIDOU-3 M15 (C34)      
1 43648U 18078B   24203.80034891 -.00000070  00000+0  00000+0 0  9999
2 43648  54.6846 324.2384 0003335  40.0492 319.9883  1.86232226 39239
BEIDOU-3 G1 (C59)       
1 43683U 18085A   24203.88873032 -.00000276  00000+0  00000+0 0  9990
2 43683   2.2745 108.3079 0004065 357.1773 294.6395  1.00273423 21083
BEIDOU-3 M17 (C36)      
1 43706U 18093A   24202.87715727  .00000094  00000+0  00000+0 0  9996
2 43706  54.2144 205.9271 0010428 281.1437  78.7640  1.86228330 38577
BEIDOU-3 M18 (C37)      
1 43707U 18093B   24203.81612576  .00000086  00000+0  00000+0 0  9991
2 43707  54.2151 205.8869 0008375 305.6428  54.2971  1.86229768 38581
BEIDOU-3 IGSO-1 (C38)   
1 44204U 19023A   24204.04372823 -.00000195  00000+0  00000+0 0  9994
2 44204  57.6932  44.8574 0022806 204.6962 184.8393  1.00290669 19398
BEIDOU-2 G8 (C01)       
1 44231U 19027A   24204.17578595 -.00000246  00000+0  00000+0 0  9993
2 44231   1.5595  74.0181 0001607 173.5551 260.6577  1.00269038 19106
BEIDOU-3 IGSO-2 (C39)   
1 44337U 19035A   24203.83752707 -.00000129  00000+0  00000+0 0  9990
2 44337  55.1844 164.9655 0035330 204.8397 350.0644  1.00286271 18696
BEIDOU-3 M24 (C46)      
1 44542U 19061A   24203.34875369  .00000090  00000+0  00000+0 0  9999
2 44542  54.4419 206.2041 0008020 341.7934  18.2001  1.86229226 32830
BEIDOU-3 M23 (C45)      
1 44543U 19061B   24203.75365745  .00000087  00000+0  00000+0 0  9993
2 44543  54.4405 206.1593 0005620 320.9743 222.9609  1.86231672 32844
BEIDOU-3 IGSO-3 (C40)   
1 44709U 19073A   24203.64062431 -.00000169  00000+0  00000+0 0  9996
2 44709  55.9895 288.3639 0040937 188.4189 171.6142  1.00292336 17486
BEIDOU-3 M22 (C44)      
1 44793U 19078A   24201.58359575 -.00000075  00000+0  00000+0 0  9999
2 44793  54.5384 324.2405 0005280  32.3258 327.7140  1.86232190 31657
BEIDOU-3 M21 (C43)      
1 44794U 19078B   24203.32415382 -.00000070  00000+0  00000+0 0  9998
2 44794  54.5104 324.1553 0003121  30.2990 329.7308  1.86232615 31697
BEIDOU-3 M19 (C41)      
1 44864U 19090A   24203.59420674 -.00000011  00000+0  00000+0 0  9994
2 44864  55.9528  85.9015 0016693 284.5132  89.2730  1.86231657 31271
BEIDOU-3 M20 (C42)      
1 44865U 19090B   24202.88537458 -.00000015  00000+0  00000+0 0  9999
2 44865  55.9537  85.9587 0014670 299.0019  49.2688  1.86231607 31244
BEIDOU-3 G2 (C60)       
1 45344U 20017A   24203.87680823 -.00000138  00000+0  00000+0 0  9994
2 45344   2.3571  30.9334 0002308 134.1259 170.7383  1.00270028 16286
BEIDOU-3 G3 (C61)       
1 45807U 20040A   24204.09755265 -.00000351  00000+0  00000+0 0  9999
2 45807   0.8357  46.4202 0004424   7.5531  32.0131  1.00275369 15113
BEIDOU-3 G4             
1 56564U 23066A   24203.89264634 -.00000106  00000+0  00000+0 0  9992
2 56564   2.0384 288.2127 0006292 208.7724 284.4917  1.00272145  4421
BEIDOU-3 M25            
1 58654U 23207A   24203.40702414 -.00000014  00000+0  00000+0 0  9999
2 58654  55.1363  85.8995 0001801 319.8152  40.2423  1.86232307  3882
BEIDOU-3 M26            
1 58655U 23207B   24203.20605002 -.00000015  00000+0  00000+0 0  9994
2 58655  55.1381  85.8917 0002139 276.5553  83.4902  1.86231929  3864
